     2.10           G: GLONASS NAV DATA                     RINEX VERSION / TYPE
teqc  2015Jun23                         20220508 01:25:42UTCPGM / RUN BY / DATE
Linux 2.4.21-27.ELsmp|Opteron|gcc -static|Linux x86_64|=+   COMMENT
  2022     4    27   -1.396983861923D-09                    CORR TO SYSTEM TIME
                                                            END OF HEADER
 1 22  4 28 22 45  0.0 8.204951882362D-06 0.000000000000D+00 8.100000000000D+04
    2.505967773438D+03-4.311227798462D-01 0.000000000000D+00 0.000000000000D+00
    2.006801416016D+04 2.087093353271D+00-1.862645149231D-09 1.000000000000D+00
    1.556407470703D+04-2.621278762817D+00-1.862645149231D-09 0.000000000000D+00
 8 22  4 28 22 45  0.0-6.481818854809D-05-0.000000000000D+00 8.100000000000D+04
   -6.727451171875D+03 1.346883773804D-01-9.313225746155D-10 0.000000000000D+00
    2.458510400391D+04 1.250867843628D-01-2.793967723846D-09 6.000000000000D+00
    6.702709960938D+02-3.571733474731D+00 0.000000000000D+00 0.000000000000D+00
12 22  4 28 22 45  0.0 1.815706491470D-05 0.000000000000D+00 8.100000000000D+04
    1.550674707031D+04-4.080982208252D-01 3.725290298462D-09 0.000000000000D+00
    1.951384179688D+04-6.320457458496D-01-9.313225746155D-10-1.000000000000D+00
    5.405601562500D+03 3.468482971191D+00-9.313225746155D-10 0.000000000000D+00
21 22  4 28 22 45  0.0-2.970406785607D-04-2.728484105319D-12 8.100000000000D+04
   -2.252491259766D+04-9.979934692383D-01-4.656612873077D-09 0.000000000000D+00
    9.036860839844D+03 4.717836380005D-01-9.313225746155D-10 4.000000000000D+00
   -7.887440917969D+03 3.390709877014D+00 1.862645149231D-09 0.000000000000D+00
22 22  4 28 22 45  0.0-1.798439770937D-04-1.818989403546D-12 8.220000000000D+04
   -9.994076171875D+03-2.696270942688D+00-9.313225746155D-10 0.000000000000D+00
    1.161854980469D+04 7.414398193359D-01-9.313225746155D-10-3.000000000000D+00
   -2.037513574219D+04 1.756167411804D+00 2.793967723846D-09 0.000000000000D+00
11 22  4 28 23 15  0.0 4.015862941742D-05-9.094947017729D-13 8.280000000000D+04
   -1.894797363281D+03-2.416492462158D+00-9.313225746155D-10 0.000000000000D+00
    1.193877880859D+04-1.901436805725D+00-9.313225746155D-10 0.000000000000D+00
    2.247240722656D+04 8.053617477417D-01-1.862645149231D-09 0.000000000000D+00
 7 22  4 28 23 15  0.0 3.443472087383D-05-0.000000000000D+00 8.280000000000D+04
   -1.108404394531D+04 4.765777587891D-01-1.862645149231D-09 0.000000000000D+00
    1.251546435547D+04-2.600008010864D+00-9.313225746155D-10 5.000000000000D+00
   -1.920370312500D+04-1.968938827515D+00 2.793967723846D-09 0.000000000000D+00
 1 22  4 28 23 15  0.0 8.205883204937D-06 0.000000000000D+00 8.280000000000D+04
    2.104336425781D+03-4.240131378174D-02-0.000000000000D+00 0.000000000000D+00
    2.325094189453D+04 1.414552688599D+00-2.793967723846D-09 1.000000000000D+00
    1.030574511719D+04-3.183430671692D+00-9.313225746155D-10 0.000000000000D+00
 8 22  4 28 23 15  0.0-6.481911987066D-05-0.000000000000D+00 8.280000000000D+04
   -6.323727050781D+03 2.729167938232D-01-9.313225746155D-10 0.000000000000D+00
    2.401785351562D+04-7.585487365723D-01-2.793967723846D-09 6.000000000000D+00
   -5.701556640625D+03-3.461963653564D+00 9.313225746155D-10 0.000000000000D+00
12 22  4 28 23 15  0.0 1.815706491470D-05 0.000000000000D+00 8.280000000000D+04
    1.412483154297D+04-1.138435363770D+00 1.862645149231D-09 0.000000000000D+00
    1.795118847656D+04-1.063284873962D+00-1.862645149231D-09-1.000000000000D+00
    1.135914306641D+04 3.103648185730D+00-1.862645149231D-09 0.000000000000D+00
21 22  4 28 23 15  0.0-2.970453351736D-04-2.728484105319D-12 8.280000000000D+04
   -2.352294384766D+04-1.128301620483D-01-5.587935447693D-09 0.000000000000D+00
    9.770568847656D+03 3.004713058472D-01-0.000000000000D+00 4.000000000000D+00
   -1.558357910156D+03 3.595996856689D+00 9.313225746155D-10 0.000000000000D+00
22 22  4 28 23 15  0.0-1.798486337066D-04-2.728484105319D-12 8.280000000000D+04
   -1.430126806641D+04-2.055798530579D+00-2.793967723846D-09 0.000000000000D+00
    1.317619580078D+04 9.522180557251D-01-9.313225746155D-10-3.000000000000D+00
   -1.646572558594D+04 2.559600830078D+00 1.862645149231D-09 0.000000000000D+00
 7 22  4 28 23 45  0.0 3.443378955126D-05-0.000000000000D+00 8.460000000000D+04
   -1.054788378906D+04 9.775447845459D-02-9.313225746155D-10 0.000000000000D+00
    7.418251953125D+03-3.018069267273D+00-0.000000000000D+00 5.000000000000D+00
   -2.195537988281D+04-1.068552017212D+00 2.793967723846D-09 0.000000000000D+00
 1 22  4 28 23 45  0.0 8.206814527512D-06 0.000000000000D+00 8.460000000000D+04
    2.234687500000D+03 1.498508453369D-01-9.313225746155D-10 0.000000000000D+00
    2.506240576172D+04 5.795478820801D-01-2.793967723846D-09 1.000000000000D+00
    4.251573242188D+03-3.499805450439D+00-0.000000000000D+00 0.000000000000D+00
 8 22  4 28 23 45  0.0-6.482005119324D-05-0.000000000000D+00 8.460000000000D+04
   -5.892373046875D+03 1.669740676880D-01-1.862645149231D-09 0.000000000000D+00
    2.187854833984D+04-1.601970672607D+00-1.862645149231D-09 6.000000000000D+00
   -1.163102929688D+04-3.083293914795D+00 1.862645149231D-09 0.000000000000D+00
12 22  4 28 23 45  0.0 1.815799623728D-05 0.000000000000D+00 8.460000000000D+04
    1.140216845703D+04-1.878928184509D+00 9.313225746155D-10 0.000000000000D+00
    1.584247753906D+04-1.235283851624D+00-1.862645149231D-09-1.000000000000D+00
    1.643464550781D+04 2.499282836914D+00-1.862645149231D-09 0.000000000000D+00
21 22  4 28 23 45  0.0-2.970509231091D-04-2.728484105319D-12 8.460000000000D+04
   -2.297356298828D+04 7.020235061646D-01-5.587935447693D-09 0.000000000000D+00
    9.972046875000D+03-1.135129928589D-01 0.000000000000D+00 4.000000000000D+00
    4.891077148438D+03 3.523554801941D+00 0.000000000000D+00 0.000000000000D+00
22 22  4 28 23 45  0.0-1.798532903194D-04-2.728484105319D-12 8.460000000000D+04
   -1.730504003906D+04-1.266189575195D+00-3.725290298462D-09 0.000000000000D+00
    1.489700488281D+04 9.152469635010D-01-0.000000000000D+00-3.000000000000D+00
   -1.127926074219D+04 3.165730476379D+00 1.862645149231D-09 0.000000000000D+00
23 22  4 28 23 45  0.0-3.881845623255D-05-9.094947017729D-13 8.529000000000D+04
    1.264511230469D+03-2.764091491699D+00 0.000000000000D+00 0.000000000000D+00
    1.095439697266D+04 1.517742156982D+00-9.313225746155D-10 3.000000000000D+00
   -2.301192041016D+04 5.716323852539D-01 1.862645149231D-09 0.000000000000D+00
 2 22  4 28 23 45  0.0 5.168542265892D-04 9.094947017729D-13 8.562000000000D+04
    9.269106933594D+03 1.874542236328D-02 0.000000000000D+00 0.000000000000D+00
    1.245045996094D+04 2.767313957214D+00-1.862645149231D-09-4.000000000000D+00
    2.027107226562D+04-1.717742919922D+00-1.862645149231D-09 0.000000000000D+00
